HTV-X1                  
1 66174U 25241A   26093.23510325  .00004760  00000+0  16087-3 0  9990
2 66174  51.6362 314.7548 0007278 267.5183  92.4966 15.32512226 24705
SZ-21 MODULE            
1 66515U 25246C   26093.25289166  .00060256  00000+0  47388-3 0  9992
2 66515  41.4748  51.9348 0002891 225.3271 134.7336 15.70567905 21932
SHENZHOU-22             
1 66645U 25272A   26093.27849687  .00031513  00000+0  35412-3 0  9996
2 66645  41.4675  58.4057 0003772 112.9182 247.2056 15.61924300281152
SOYUZ-MS 28             
1 66664U 25275A   26093.10136821  .00012012  00000+0  22784-3 0  9992
2 66664  51.6327 311.6710 0006236 265.7481  94.2795 15.48735493559861
DUPLEX                  
1 66906U 98067XS  26093.16810926  .00043515  00000+0  57537-3 0  9997
2 66906  51.6284 306.8678 0003125 227.1733 132.8996 15.57885529 18944
ISS OBJECT XT           
1 66907U 98067XT  26093.28441295  .00361691  00000+0  18784-2 0  9998
2 66907  51.6220 299.3474 0006938 241.0922 118.9383 15.79389654 19055
ISS OBJECT XU           
1 66908U 98067XU  26093.27963861  .00376814  00000+0  19242-2 0  9999
2 66908  51.6221 299.3108 0007095 240.6488 119.3805 15.79720595 19055
SILVERSAT               
1 66909U 98067XV  26092.58307897  .00490335  00000+0  18699-2 0  9994
2 66909  51.6187 301.3924 0008484 244.3474 115.6654 15.85656241 18969
ISS OBJECT XW           
1 66910U 98067XW  26093.29727467  .00303275  00000+0  17271-2 0  9995
2 66910  51.6203 299.4256 0007290 236.8734 123.1567 15.77493204 19051
ISS OBJECT XX           
1 66911U 98067XX  26092.94054922  .01110416  58672-3  27185-2 0  9997
2 66911  51.6159 297.7328 0010664 251.8408 108.1439 15.95513790 19039
ISS OBJECT XY           
1 66912U 98067XY  26093.27475158  .00163051  00000+0  13566-2 0  9991
2 66912  51.6253 302.3137 0004795 234.0576 125.9976 15.69079416 19006
KNACKSAT-2              
1 67683U 98067XZ  26092.92528466  .00067722  00000+0  10267-2 0  9992
2 67683  51.6310 311.2469 0010421 275.3642  84.6159 15.53933498  8552
